ONEWEB-0228             
1 48780U 21045P   24236.40672966  .00000105  00000+0  24443-3 0  9991
2 48780  87.9046  31.0647 0001631  94.9770 265.1546 13.15546513157186
